[{"OBJECT_NAME":"TIANMU-1 20","OBJECT_ID":"2023-208B","EPOCH":"2026-03-09T21:50:45.859200","MEAN_MOTION":15.31029249,"ECCENTRICITY":0.00061925,"INCLINATION":97.4323,"RA_OF_ASC_NODE":185.4313,"ARG_OF_PERICENTER":324.1763,"MEAN_ANOMALY":35.9062,"EPHEMERIS_TYPE":0,"CLASSIFICATION_TYPE":"U","NORAD_CAT_ID":58661,"ELEMENT_SET_NO":999,"REV_AT_EPOCH":12222,"BSTAR":0.0003681641,"MEAN_MOTION_DOT":0.00010969,"MEAN_MOTION_DDOT":0},{"OBJECT_NAME":"STARLINK-35542","OBJECT_ID":"2025-235G","EPOCH":"2026-03-09T17:16:25.156704","MEAN_MOTION":15.30221861,"ECCENTRICITY":0.00012408,"INCLINATION":53.157,"RA_OF_ASC_NODE":245.3063,"ARG_OF_PERICENTER":97.4324,"MEAN_ANOMALY":262.6818,"EPHEMERIS_TYPE":0,"CLASSIFICATION_TYPE":"U","NORAD_CAT_ID":66064,"ELEMENT_SET_NO":999,"REV_AT_EPOCH":2292,"BSTAR":0.0015886005,"MEAN_MOTION_DOT":0.00047021,"MEAN_MOTION_DDOT":0}]
